CTC2_L_00329001-01
1 10000U 26904C   26075.70045139  .00000000  00000+0  00000-0 0  9990
2 10000  55.0000   0.0000 0000000   0.0000   0.0000 13.56072486    16
CTC2_L_00329001-02
1 10001U 26715AG  26075.70045139  .00000000  00000+0  00000-0 0  9991
2 10001  55.0000   0.0000 0000000   0.0000  90.0000 13.56072486    16
CTC2_L_00329001-03
1 10002U 24009EJ  26075.70045139  .00000000  00000+0  00000-0 0  9996
2 10002  55.0000   0.0000 0000000   0.0000 180.0000 13.56072486    17
CTC2_L_00329001-04
1 10003U 26804DT  26075.70045139  .00000000  00000+0  00000-0 0  9992
2 10003  55.0000   0.0000 0000000   0.0000 270.0000 13.56072486    18
CTC2_L_00329002-01
1 10004U 25679XN  26075.70045139  .00000000  00000+0  00000-0 0  9992
2 10004  55.0000  12.0000 0000000   0.0000  12.0000 13.56072486    16
CTC2_L_00329002-02
1 10005U 26728O   26075.70045139  .00000000  00000+0  00000-0 0  9999
2 10005  55.0000  12.0000 0000000   0.0000 102.0000 13.56072486    17
CTC2_L_00329002-03
1 10006U 26279PO  26075.70045139  .00000000  00000+0  00000-0 0  9991
2 10006  55.0000  12.0000 0000000   0.0000 192.0000 13.56072486    17
CTC2_L_00329002-04
1 10007U 23335T   26075.70045139  .00000000  00000+0  00000-0 0  9992
2 10007  55.0000  12.0000 0000000   0.0000 282.0000 13.56072486    18
CTC2_L_00329003-01
1 10008U 25629GL  26075.70045139  .00000000  00000+0  00000-0 0  9991
2 10008  55.0000  24.0000 0000000   0.0000  24.0000 13.56072486    16
CTC2_L_00329003-02
1 10009U 25549UC  26075.70045139  .00000000  00000+0  00000-0 0  9993
2 10009  55.0000  24.0000 0000000   0.0000 114.0000 13.56072486    17
CTC2_L_00329003-03
1 10010U 23616RA  26075.70045139  .00000000  00000+0  00000-0 0  9998
2 10010  55.0000  24.0000 0000000   0.0000 204.0000 13.56072486    19
CTC2_L_00329003-04
1 10011U 25354XP  26075.70045139  .00000000  00000+0  00000-0 0  9990
2 10011  55.0000  24.0000 0000000   0.0000 294.0000 13.56072486    19
CTC2_L_00329004-01
1 10012U 25825NX  26075.70045139  .00000000  00000+0  00000-0 0  9994
2 10012  55.0000  36.0000 0000000   0.0000  36.0000 13.56072486    17
CTC2_L_00329004-02
1 10013U 24906VT  26075.70045139  .00000000  00000+0  00000-0 0  9994
2 10013  55.0000  36.0000 0000000   0.0000 126.0000 13.56072486    18
CTC2_L_00329004-03
1 10014U 23602UJ  26075.70045139  .00000000  00000+0  00000-0 0  9997
2 10014  55.0000  36.0000 0000000   0.0000 216.0000 13.56072486    19
CTC2_L_00329004-04
1 10015U 24327RI  26075.70045139  .00000000  00000+0  00000-0 0  9993
2 10015  55.0000  36.0000 0000000   0.0000 306.0000 13.56072486    10
CTC2_L_00329005-01
1 10016U 24731PV  26075.70045139  .00000000  00000+0  00000-0 0  9993
2 10016  55.0000  48.0000 0000000   0.0000  48.0000 13.56072486    17
CTC2_L_00329005-02
1 10017U 26635YH  26075.70045139  .00000000  00000+0  00000-0 0  9999
2 10017  55.0000  48.0000 0000000   0.0000 138.0000 13.56072486    18
CTC2_L_00329005-03
1 10018U 22982MQ  26075.70045139  .00000000  00000+0  00000-0 0  9991
2 10018  55.0000  48.0000 0000000   0.0000 228.0000 13.56072486    19
CTC2_L_00329005-04
1 10019U 26950EJ  26075.70045139  .00000000  00000+0  00000-0 0  9991
2 10019  55.0000  48.0000 0000000   0.0000 318.0000 13.56072486    10
CTC2_L_00329006-01
1 10020U 26898GS  26075.70045139  .00000000  00000+0  00000-0 0  9994
2 10020  55.0000  60.0000 0000000   0.0000  60.0000 13.56072486    10
CTC2_L_00329006-02
1 10021U 22716IX  26075.70045139  .00000000  00000+0  00000-0 0  9990
2 10021  55.0000  60.0000 0000000   0.0000 150.0000 13.56072486    11
CTC2_L_00329006-03
1 10022U 26749AV  26075.70045139  .00000000  00000+0  00000-0 0  9991
2 10022  55.0000  60.0000 0000000   0.0000 240.0000 13.56072486    12
CTC2_L_00329006-04
1 10023U 24337PE  26075.70045139  .00000000  00000+0  00000-0 0  9993
2 10023  55.0000  60.0000 0000000   0.0000 330.0000 13.56072486    13
CTC2_L_00329007-01
1 10024U 23139EN  26075.70045139  .00000000  00000+0  00000-0 0  9993
2 10024  55.0000  72.0000 0000000   0.0000  72.0000 13.56072486    10
CTC2_L_00329007-02
1 10025U 23570CQ  26075.70045139  .00000000  00000+0  00000-0 0  9993
2 10025  55.0000  72.0000 0000000   0.0000 162.0000 13.56072486    11
CTC2_L_00329007-03
1 10026U 22064BU  26075.70045139  .00000000  00000+0  00000-0 0  9991
2 10026  55.0000  72.0000 0000000   0.0000 252.0000 13.56072486    12
CTC2_L_00329007-04
1 10027U 23752SH  26075.70045139  .00000000  00000+0  00000-0 0  9997
2 10027  55.0000  72.0000 0000000   0.0000 342.0000 13.56072486    13
CTC2_L_00329008-01
1 10028U 22369RB  26075.70045139  .00000000  00000+0  00000-0 0  9991
2 10028  55.0000  84.0000 0000000   0.0000  84.0000 13.56072486    10
CTC2_L_00329008-02
1 10029U 25003LI  26075.70045139  .00000000  00000+0  00000-0 0  9990
2 10029  55.0000  84.0000 0000000   0.0000 174.0000 13.56072486    11
CTC2_L_00329008-03
1 10030U 22922MB  26075.70045139  .00000000  00000+0  00000-0 0  9999
2 10030  55.0000  84.0000 0000000   0.0000 264.0000 13.56072486    13
CTC2_L_00329008-04
1 10031U 22826NQ  26075.70045139  .00000000  00000+0  00000-0 0  9993
2 10031  55.0000  84.0000 0000000   0.0000 354.0000 13.56072486    14
CTC2_L_00329009-01
1 10032U 23736QO  26075.70045139  .00000000  00000+0  00000-0 0  9995
2 10032  55.0000  96.0000 0000000   0.0000  96.0000 13.56072486    11
CTC2_L_00329009-02
1 10033U 25158LB  26075.70045139  .00000000  00000+0  00000-0 0  9996
2 10033  55.0000  96.0000 0000000   0.0000 186.0000 13.56072486    12
CTC2_L_00329009-03
1 10034U 22184TT  26075.70045139  .00000000  00000+0  00000-0 0  9993
2 10034  55.0000  96.0000 0000000   0.0000 276.0000 13.56072486    13
CTC2_L_00329009-04
1 10035U 26998PV  26075.70045139  .00000000  00000+0  00000-0 0  9991
2 10035  55.0000  96.0000 0000000   0.0000   6.0000 13.56072486    15
CTC2_L_00329010-01
1 10036U 23385HP  26075.70045139  .00000000  00000+0  00000-0 0  9999
2 10036  55.0000 108.0000 0000000   0.0000 108.0000 13.56072486    13
CTC2_L_00329010-02
1 10037U 24659EY  26075.70045139  .00000000  00000+0  00000-0 0  9995
2 10037  55.0000 108.0000 0000000   0.0000 198.0000 13.56072486    13
CTC2_L_00329010-03
1 10038U 25946YV  26075.70045139  .00000000  00000+0  00000-0 0  9996
2 10038  55.0000 108.0000 0000000   0.0000 288.0000 13.56072486    14
CTC2_L_00329010-04
1 10039U 25872YG  26075.70045139  .00000000  00000+0  00000-0 0  9995
2 10039  55.0000 108.0000 0000000   0.0000  18.0000 13.56072486    16
CTC2_L_00329011-01
1 10040U 24269HZ  26075.70045139  .00000000  00000+0  00000-0 0  9996
2 10040  55.0000 120.0000 0000000   0.0000 120.0000 13.56072486    16
CTC2_L_00329011-02
1 10041U 24401BL  26075.70045139  .00000000  00000+0  00000-0 0  9995
2 10041  55.0000 120.0000 0000000   0.0000 210.0000 13.56072486    17
CTC2_L_00329011-03
1 10042U 22805TH  26075.70045139  .00000000  00000+0  00000-0 0  9992
2 10042  55.0000 120.0000 0000000   0.0000 300.0000 13.56072486    18
CTC2_L_00329011-04
1 10043U 26644EQ  26075.70045139  .00000000  00000+0  00000-0 0  9998
2 10043  55.0000 120.0000 0000000   0.0000  30.0000 13.56072486    19
CTC2_L_00329012-01
1 10044U 26937ZY  26075.70045139  .00000000  00000+0  00000-0 0  9994
2 10044  55.0000 132.0000 0000000   0.0000 132.0000 13.56072486    16
CTC2_L_00329012-02
1 10045U 22633WV  26075.70045139  .00000000  00000+0  00000-0 0  9994
2 10045  55.0000 132.0000 0000000   0.0000 222.0000 13.56072486    17
CTC2_L_00329012-03
1 10046U 25975MY  26075.70045139  .00000000  00000+0  00000-0 0  9997
2 10046  55.0000 132.0000 0000000   0.0000 312.0000 13.56072486    18
CTC2_L_00329012-04
1 10047U 23815WE  26075.70045139  .00000000  00000+0  00000-0 0  9999
2 10047  55.0000 132.0000 0000000   0.0000  42.0000 13.56072486    19
CTC2_L_00329013-01
1 10048U 26322KW  26075.70045139  .00000000  00000+0  00000-0 0  9996
2 10048  55.0000 144.0000 0000000   0.0000 144.0000 13.56072486    16
CTC2_L_00329013-02
1 10049U 25308EP  26075.70045139  .00000000  00000+0  00000-0 0  9990
2 10049  55.0000 144.0000 0000000   0.0000 234.0000 13.56072486    17
CTC2_L_00329013-03
1 10050U 22672XN  26075.70045139  .00000000  00000+0  00000-0 0  9993
2 10050  55.0000 144.0000 0000000   0.0000 324.0000 13.56072486    19
CTC2_L_00329013-04
1 10051U 22988VO  26075.70045139  .00000000  00000+0  00000-0 0  9994
2 10051  55.0000 144.0000 0000000   0.0000  54.0000 13.56072486    10
CTC2_L_00329014-01
1 10052U 26948RQ  26075.70045139  .00000000  00000+0  00000-0 0  9995
2 10052  55.0000 156.0000 0000000   0.0000 156.0000 13.56072486    17
CTC2_L_00329014-02
1 10053U 24859OB  26075.70045139  .00000000  00000+0  00000-0 0  9995
2 10053  55.0000 156.0000 0000000   0.0000 246.0000 13.56072486    18
CTC2_L_00329014-03
1 10054U 23702MA  26075.70045139  .00000000  00000+0  00000-0 0  9992
2 10054  55.0000 156.0000 0000000   0.0000 336.0000 13.56072486    19
CTC2_L_00329014-04
1 10055U 25966UJ  26075.70045139  .00000000  00000+0  00000-0 0  9997
2 10055  55.0000 156.0000 0000000   0.0000  66.0000 13.56072486    10
CTC2_L_00329015-01
1 10056U 26111YZ  26075.70045139  .00000000  00000+0  00000-0 0  9991
2 10056  55.0000 168.0000 0000000   0.0000 168.0000 13.56072486    17
CTC2_L_00329015-02
1 10057U 22105TF  26075.70045139  .00000000  00000+0  00000-0 0  9991
2 10057  55.0000 168.0000 0000000   0.0000 258.0000 13.56072486    18
CTC2_L_00329015-03
1 10058U 25205SU  26075.70045139  .00000000  00000+0  00000-0 0  9996
2 10058  55.0000 168.0000 0000000   0.0000 348.0000 13.56072486    19
CTC2_L_00329015-04
1 10059U 24779VR  26075.70045139  .00000000  00000+0  00000-0 0  9992
2 10059  55.0000 168.0000 0000000   0.0000  78.0000 13.56072486    10
CTC2_L_00329016-01
1 10060U 25948IC  26075.70045139  .00000000  00000+0  00000-0 0  9993
2 10060  55.0000 180.0000 0000000   0.0000 180.0000 13.56072486    10
CTC2_L_00329016-02
1 10061U 24740GE  26075.70045139  .00000000  00000+0  00000-0 0  9993
2 10061  55.0000 180.0000 0000000   0.0000 270.0000 13.56072486    11
